[
  {
    "OBJECT_NAME": "STARLINK-1325",
    "OBJECT_ID": "20025Z",
    "EPOCH": "2025-11-11T08:00:03.000384",
    "MEAN_MOTION": 15.64684907,
    "ECCENTRICITY": 0.0002324,
    "INCLINATION": 53.0536,
    "RA_OF_ASC_NODE": 199.6738,
    "ARG_OF_PERICENTER": 180.6928,
    "MEAN_ANOMALY": 163.5117,
    "EPHEMERIS_TYPE": 0,
    "CLASSIFICATION_TYPE": "U",
    "NORAD_CAT_ID": 45554,
    "ELEMENT_SET_NO": 999,
    "REV_AT_EPOCH": 579,
    "BSTAR": 0.0017181,
    "MEAN_MOTION_DOT": 0.00172848,
    "MEAN_MOTION_DDOT": 0.0,
    "TLE_LINE1": "1 45554U 20025Z   25315.33336806  .00172848  00000+0  17181-2 0  9999",
    "TLE_LINE2": "2 45554  53.0536 199.6738 0002324 180.6928 163.5117 15.64684907  5790",
    "COMMENT": "Grouped by shell and plane from TLE"
  },
  {
    "OBJECT_NAME": "STARLINK-11107 [DTC]",
    "OBJECT_ID": "24088A",
    "EPOCH": "2025-11-11T01:19:33.835008",
    "MEAN_MOTION": 15.69711103,
    "ECCENTRICITY": 5.89e-05,
    "INCLINATION": 53.1596,
    "RA_OF_ASC_NODE": 190.7948,
    "ARG_OF_PERICENTER": 69.5621,
    "MEAN_ANOMALY": 290.546,
    "EPHEMERIS_TYPE": 0,
    "CLASSIFICATION_TYPE": "U",
    "NORAD_CAT_ID": 59708,
    "ELEMENT_SET_NO": 999,
    "REV_AT_EPOCH": 8762,
    "BSTAR": 1.4522e-05,
    "MEAN_MOTION_DOT": 1.172e-05,
    "MEAN_MOTION_DDOT": 0.0,
    "TLE_LINE1": "1 59708U 24088A   25315.05525272  .00001172  00000+0  14522-4 0  9993",
    "TLE_LINE2": "2 59708  53.1596 190.7948 0000589  69.5621 290.5460 15.69711103 87622",
    "COMMENT": "Grouped by shell and plane from TLE"
  },
  {
    "OBJECT_NAME": "STARLINK-11088 [DTC]",
    "OBJECT_ID": "24088B",
    "EPOCH": "2025-11-11T01:05:34.871136",
    "MEAN_MOTION": 15.69714366,
    "ECCENTRICITY": 6.74e-05,
    "INCLINATION": 53.1585,
    "RA_OF_ASC_NODE": 191.4541,
    "ARG_OF_PERICENTER": 75.2452,
    "MEAN_ANOMALY": 284.8641,
    "EPHEMERIS_TYPE": 0,
    "CLASSIFICATION_TYPE": "U",
    "NORAD_CAT_ID": 59709,
    "ELEMENT_SET_NO": 999,
    "REV_AT_EPOCH": 8763,
    "BSTAR": 0.0,
    "MEAN_MOTION_DOT": -8.888e-05,
    "MEAN_MOTION_DDOT": 0.0,
    "TLE_LINE1": "1 59709U 24088B   25315.04554249 -.00008888  00000+0 -68574-4 0  9998",
    "TLE_LINE2": "2 59709  53.1585 191.4541 0000674  75.2452 284.8641 15.69714366 87631",
    "COMMENT": "Grouped by shell and plane from TLE"
  },
  {
    "OBJECT_NAME": "STARLINK-11092 [DTC]",
    "OBJECT_ID": "24088C",
    "EPOCH": "2025-11-11T00:58:31.315008",
    "MEAN_MOTION": 15.69724155,
    "ECCENTRICITY": 0.0001239,
    "INCLINATION": 53.1589,
    "RA_OF_ASC_NODE": 191.4199,
    "ARG_OF_PERICENTER": 85.716,
    "MEAN_ANOMALY": 274.4,
    "EPHEMERIS_TYPE": 0,
    "CLASSIFICATION_TYPE": "U",
    "NORAD_CAT_ID": 59710,
    "ELEMENT_SET_NO": 999,
    "REV_AT_EPOCH": 8763,
    "BSTAR": 0.0,
    "MEAN_MOTION_DOT": -2.403e-05,
    "MEAN_MOTION_DDOT": 0.0,
    "TLE_LINE1": "1 59710U 24088C   25315.04064022 -.00002403  00000+0 -14969-4 0  9991",
    "TLE_LINE2": "2 59710  53.1589 191.4199 0001239  85.7160 274.4000 15.69724155 87637",
    "COMMENT": "Grouped by shell and plane from TLE"
  },
  {
    "OBJECT_NAME": "STARLINK-11082 [DTC]",
    "OBJECT_ID": "24088D",
    "EPOCH": "2025-11-11T00:51:27.265536",
    "MEAN_MOTION": 15.69705759,
    "ECCENTRICITY": 7.29e-05,
    "INCLINATION": 53.1592,
    "RA_OF_ASC_NODE": 191.3878,
    "ARG_OF_PERICENTER": 70.9847,
    "MEAN_ANOMALY": 289.125,
    "EPHEMERIS_TYPE": 0,
    "CLASSIFICATION_TYPE": "U",
    "NORAD_CAT_ID": 59711,
    "ELEMENT_SET_NO": 999,
    "REV_AT_EPOCH": 8763,
    "BSTAR": 1.5042000000000001e-05,
    "MEAN_MOTION_DOT": 1.234e-05,
    "MEAN_MOTION_DDOT": 0.0,
    "TLE_LINE1": "1 59711U 24088D   25315.03573224  .00001234  00000+0  15042-4 0  9992",
    "TLE_LINE2": "2 59711  53.1592 191.3878 0000729  70.9847 289.1250 15.69705759 87635",
    "COMMENT": "Grouped by shell and plane from TLE"
  },
  {
    "OBJECT_NAME": "STARLINK-11108 [DTC]",
    "OBJECT_ID": "24088E",
    "EPOCH": "2025-11-11T02:16:04.168416",
    "MEAN_MOTION": 15.69711054,
    "ECCENTRICITY": 3.01e-05,
    "INCLINATION": 53.1585,
    "RA_OF_ASC_NODE": 191.0398,
    "ARG_OF_PERICENTER": 186.8035,
    "MEAN_ANOMALY": 173.2979,
    "EPHEMERIS_TYPE": 0,
    "CLASSIFICATION_TYPE": "U",
    "NORAD_CAT_ID": 59712,
    "ELEMENT_SET_NO": 999,
    "REV_AT_EPOCH": 8764,
    "BSTAR": 1.6646e-05,
    "MEAN_MOTION_DOT": 1.43e-05,
    "MEAN_MOTION_DDOT": 0.0,
    "TLE_LINE1": "1 59712U 24088E   25315.09449269  .00001430  00000+0  16646-4 0  9999",
    "TLE_LINE2": "2 59712  53.1585 191.0398 0000301 186.8035 173.2979 15.69711054 87641",
    "COMMENT": "Grouped by shell and plane from TLE"
  },
  {
    "OBJECT_NAME": "STARLINK-11100 [DTC]",
    "OBJECT_ID": "24088F",
    "EPOCH": "2025-11-11T00:37:19.692768",
    "MEAN_MOTION": 15.69714258,
    "ECCENTRICITY": 0.0001576,
    "INCLINATION": 53.1571,
    "RA_OF_ASC_NODE": 191.3213,
    "ARG_OF_PERICENTER": 71.8455,
    "MEAN_ANOMALY": 288.2734,
    "EPHEMERIS_TYPE": 0,
    "CLASSIFICATION_TYPE": "U",
    "NORAD_CAT_ID": 59713,
    "ELEMENT_SET_NO": 999,
    "REV_AT_EPOCH": 8763,
    "BSTAR": 8.2668e-06,
    "MEAN_MOTION_DOT": 4.12e-06,
    "MEAN_MOTION_DDOT": 0.0,
    "TLE_LINE1": "1 59713U 24088F   25315.02592237  .00000412  00000+0  82668-5 0  9994",
    "TLE_LINE2": "2 59713  53.1571 191.3213 0001576  71.8455 288.2734 15.69714258 87634",
    "COMMENT": "Grouped by shell and plane from TLE"
  },
  {
    "OBJECT_NAME": "STARLINK-11094 [DTC]",
    "OBJECT_ID": "24088G",
    "EPOCH": "2025-11-11T02:01:57.377568",
    "MEAN_MOTION": 15.69734867,
    "ECCENTRICITY": 0.0002366,
    "INCLINATION": 53.1579,
    "RA_OF_ASC_NODE": 190.9817,
    "ARG_OF_PERICENTER": 79.9566,
    "MEAN_ANOMALY": 280.1719,
    "EPHEMERIS_TYPE": 0,
    "CLASSIFICATION_TYPE": "U",
    "NORAD_CAT_ID": 59714,
    "ELEMENT_SET_NO": 999,
    "REV_AT_EPOCH": 8764,
    "BSTAR": 0.00017887,
    "MEAN_MOTION_DOT": 0.00021159,
    "MEAN_MOTION_DDOT": 0.0,
    "TLE_LINE1": "1 59714U 24088G   25315.08469187  .00021159  00000+0  17887-3 0  9998",
    "TLE_LINE2": "2 59714  53.1579 190.9817 0002366  79.9566 280.1719 15.69734867 87641",
    "COMMENT": "Grouped by shell and plane from TLE"
  },
  {
    "OBJECT_NAME": "STARLINK-11101 [DTC]",
    "OBJECT_ID": "24088H",
    "EPOCH": "2025-11-11T01:47:49.583616",
    "MEAN_MOTION": 15.69712517,
    "ECCENTRICITY": 0.0001705,
    "INCLINATION": 53.1574,
    "RA_OF_ASC_NODE": 190.9087,
    "ARG_OF_PERICENTER": 87.4905,
    "MEAN_ANOMALY": 272.6308,
    "EPHEMERIS_TYPE": 0,
    "CLASSIFICATION_TYPE": "U",
    "NORAD_CAT_ID": 59715,
    "ELEMENT_SET_NO": 999,
    "REV_AT_EPOCH": 8764,
    "BSTAR": 4.4318000000000005e-05,
    "MEAN_MOTION_DOT": 4.783e-05,
    "MEAN_MOTION_DDOT": 0.0,
    "TLE_LINE1": "1 59715U 24088H   25315.07487944  .00004783  00000+0  44318-4 0  9993",
    "TLE_LINE2": "2 59715  53.1574 190.9087 0001705  87.4905 272.6308 15.69712517 87641",
    "COMMENT": "Grouped by shell and plane from TLE"
  },
  {
    "OBJECT_NAME": "STARLINK-11099 [DTC]",
    "OBJECT_ID": "24088J",
    "EPOCH": "2025-11-11T01:54:52.905600",
    "MEAN_MOTION": 15.69714091,
    "ECCENTRICITY": 7.14e-05,
    "INCLINATION": 53.1591,
    "RA_OF_ASC_NODE": 190.9402,
    "ARG_OF_PERICENTER": 103.1949,
    "MEAN_ANOMALY": 256.9148,
    "EPHEMERIS_TYPE": 0,
    "CLASSIFICATION_TYPE": "U",
    "NORAD_CAT_ID": 59716,
    "ELEMENT_SET_NO": 999,
    "REV_AT_EPOCH": 8764,
    "BSTAR": 1.311e-05,
    "MEAN_MOTION_DOT": 1.001e-05,
    "MEAN_MOTION_DDOT": 0.0,
    "TLE_LINE1": "1 59716U 24088J   25315.07977900  .00001001  00000+0  13110-4 0  9996",
    "TLE_LINE2": "2 59716  53.1591 190.9402 0000714 103.1949 256.9148 15.69714091 87641",
    "COMMENT": "Grouped by shell and plane from TLE"
  },
  {
    "OBJECT_NAME": "STARLINK-11084 [DTC]",
    "OBJECT_ID": "24088K",
    "EPOCH": "2025-11-10T16:30:39.427776",
    "MEAN_MOTION": 15.69584881,
    "ECCENTRICITY": 0.0002311,
    "INCLINATION": 53.1551,
    "RA_OF_ASC_NODE": 192.7574,
    "ARG_OF_PERICENTER": 42.6083,
    "MEAN_ANOMALY": 317.5114,
    "EPHEMERIS_TYPE": 0,
    "CLASSIFICATION_TYPE": "U",
    "NORAD_CAT_ID": 59717,
    "ELEMENT_SET_NO": 999,
    "REV_AT_EPOCH": 8758,
    "BSTAR": 0.00024721000000000004,
    "MEAN_MOTION_DOT": 0.00029313,
    "MEAN_MOTION_DDOT": 0.0,
    "TLE_LINE1": "1 59717U 24088K   25314.68795634  .00029313  00000+0  24721-3 0  9990",
    "TLE_LINE2": "2 59717  53.1551 192.7574 0002311  42.6083 317.5114 15.69584881 87581",
    "COMMENT": "Grouped by shell and plane from TLE"
  },
  {
    "OBJECT_NAME": "STARLINK-11103 [DTC]",
    "OBJECT_ID": "24088L",
    "EPOCH": "2025-11-10T01:06:44.667648",
    "MEAN_MOTION": 15.69736125,
    "ECCENTRICITY": 9.32e-05,
    "INCLINATION": 53.1592,
    "RA_OF_ASC_NODE": 195.8641,
    "ARG_OF_PERICENTER": 79.8801,
    "MEAN_ANOMALY": 280.2323,
    "EPHEMERIS_TYPE": 0,
    "CLASSIFICATION_TYPE": "U",
    "NORAD_CAT_ID": 59718,
    "ELEMENT_SET_NO": 999,
    "REV_AT_EPOCH": 8748,
    "BSTAR": 0.0,
    "MEAN_MOTION_DOT": -4.678e-05,
    "MEAN_MOTION_DDOT": 0.0,
    "TLE_LINE1": "1 59718U 24088L   25314.04635032 -.00004678  00000+0 -33741-4 0  9998",
    "TLE_LINE2": "2 59718  53.1592 195.8641 0000932  79.8801 280.2323 15.69736125 87480",
    "COMMENT": "Grouped by shell and plane from TLE"
  },
  {
    "OBJECT_NAME": "STARLINK-11096 [DTC]",
    "OBJECT_ID": "24088M",
    "EPOCH": "2025-11-11T01:12:38.843712",
    "MEAN_MOTION": 15.69709626,
    "ECCENTRICITY": 0.0001299,
    "INCLINATION": 53.1579,
    "RA_OF_ASC_NODE": 191.4788,
    "ARG_OF_PERICENTER": 110.773,
    "MEAN_ANOMALY": 249.3427,
    "EPHEMERIS_TYPE": 0,
    "CLASSIFICATION_TYPE": "U",
    "NORAD_CAT_ID": 59719,
    "ELEMENT_SET_NO": 999,
    "REV_AT_EPOCH": 8763,
    "BSTAR": 1.3947000000000002e-05,
    "MEAN_MOTION_DOT": 1.101e-05,
    "MEAN_MOTION_DDOT": 0.0,
    "TLE_LINE1": "1 59719U 24088M   25315.05044958  .00001101  00000+0  13947-4 0  9994",
    "TLE_LINE2": "2 59719  53.1579 191.4788 0001299 110.7730 249.3427 15.69709626 87637",
    "COMMENT": "Grouped by shell and plane from TLE"
  }
]